{
  "type": "FeatureCollection",
  "name": "bridges",
  "crs": {
    "type": "name",
    "properties": {
      "name": "urn:ogc:def:crs:EPSG::4326"
    }
  },
  "features": [
    {
      "type": "Feature",
      "properties": {
        "id": "bridge_east",
        "name": "东桥",
        "risk_score": 0.8,
        "closure_threshold": 0.62,
        "bridge_type": "main_river_bridge"
      },
      "geometry": { "type": "Point", "coordinates": [121.382, 31.269] }
    },
    {
      "type": "Feature",
      "properties": {
        "id": "bridge_south",
        "name": "南涵洞",
        "risk_score": 0.68,
        "closure_threshold": 0.58,
        "bridge_type": "tributary_culvert"
      },
      "geometry": { "type": "Point", "coordinates": [121.409, 31.218] }
    }
  ]
}
