{
  "type": "FeatureCollection",
  "name": "rivers",
  "crs": {
    "type": "name",
    "properties": {
      "name": "urn:ogc:def:crs:EPSG::4326"
    }
  },
  "features": [
    {
      "type": "Feature",
      "properties": {
        "id": "main_river",
        "name": "清源河主槽",
        "kind": "main_channel",
        "flow_direction": "W-E",
        "risk_score": 0.82
      },
      "geometry": {
        "type": "LineString",
        "coordinates": [
          [121.3, 31.255],
          [121.335, 31.256],
          [121.37, 31.255],
          [121.405, 31.253],
          [121.44, 31.251],
          [121.474, 31.248]
        ]
      }
    },
    {
      "type": "Feature",
      "properties": {
        "id": "south_tributary",
        "name": "南支沟",
        "kind": "tributary_culvert",
        "flow_direction": "S-N",
        "risk_score": 0.68
      },
      "geometry": {
        "type": "LineString",
        "coordinates": [
          [121.386, 31.199],
          [121.397, 31.207],
          [121.409, 31.218],
          [121.421, 31.229],
          [121.432, 31.226],
          [121.405, 31.253]
        ]
      }
    }
  ]
}
