{
  "type": "FeatureCollection",
  "name": "villages",
  "crs": {
    "type": "name",
    "properties": {
      "name": "urn:ogc:def:crs:EPSG::4326"
    }
  },
  "features": [
    {
      "type": "Feature",
      "properties": {
        "id": "north_valley",
        "name": "北谷村",
        "population": 220,
        "vulnerable_population": 90,
        "elevation_m": 52,
        "river_distance_m": 1200,
        "hazard_exposure": 0.18,
        "administrative_level": "village",
        "evacuation_role": "watch_pretransfer",
        "transfer_trigger": "vulnerable_pretransfer_or_isolation_risk"
      },
      "geometry": { "type": "Point", "coordinates": [121.318, 31.318] }
    },
    {
      "type": "Feature",
      "properties": {
        "id": "qingyuan_town",
        "name": "清源镇",
        "population": 530,
        "vulnerable_population": 110,
        "elevation_m": 36,
        "river_distance_m": 760,
        "hazard_exposure": 0.22,
        "administrative_level": "town",
        "evacuation_role": "command_support_partial",
        "transfer_trigger": "low_lying_blocks_only"
      },
      "geometry": { "type": "Point", "coordinates": [121.388, 31.276] }
    },
    {
      "type": "Feature",
      "properties": {
        "id": "south_valley",
        "name": "南谷村",
        "population": 180,
        "vulnerable_population": 70,
        "elevation_m": 23,
        "river_distance_m": 180,
        "hazard_exposure": 0.72,
        "administrative_level": "village",
        "evacuation_role": "priority_transfer",
        "transfer_trigger": "tributary_backwater_or_culvert_overtopping"
      },
      "geometry": { "type": "Point", "coordinates": [121.392, 31.206] }
    },
    {
      "type": "Feature",
      "properties": {
        "id": "nursing_home",
        "name": "青松养老照料中心",
        "population": 69,
        "vulnerable_population": 55,
        "elevation_m": 18,
        "river_distance_m": 90,
        "hazard_exposure": 0.88,
        "administrative_level": "institution",
        "evacuation_role": "mandatory_priority_transfer",
        "transfer_trigger": "orange_response_or_water_level_warning"
      },
      "geometry": { "type": "Point", "coordinates": [121.352, 31.248] }
    }
  ]
}
